206P/Barnard-Boattini,e,33.6311,202.3531,189.4523,3.488277,0.1512821,0.55141161,334.0593,09/14.0/2020,2000,g 19.0,4.0
# From MPC 75725
207P/NEAT,e,10.1560,199.2173,272.2883,3.865305,0.1296965,0.76021231,199.6400,09/14.0/2020,2000,g 16.0,4.0
# From MPC101100
208P/McMillan,e,4.4094,36.3596,310.4033,4.046783,0.1210708,0.37345363,185.7172,09/14.0/2020,2000,g 12.5,4.0
# From MPC 90771
209P/LINEAR,e,21.2577,62.7686,152.4818,2.960262,0.1935124,0.67318503,88.8726,09/14.0/2020,2000,g 17.0,2.0
# From MPC105242
210P/Christensen,e,10.2619,93.8346,345.9058,3.165384,0.1750106,0.83320869,27.8403,09/14.0/2020,2000,g 13.5,4.0
# From MPC 96868
211P/Hill,e,18.9221,117.1400,4.1525,3.548119,0.1474710,0.34277851,249.2803,09/14.0/2020,2000,g 12.5,4.0
# From MPC104795
212P/NEAT,e,22.5082,98.6024,14.1402,3.880349,0.1289430,0.58972978,189.4588,09/14.0/2020,2000,g 17.0,2.0
# From MPC114608
213P/Van Ness,e,10.3827,311.3000,5.6126,3.348166,0.1608768,0.40814274,174.5289,09/14.0/2020,2000,g 10.5,4.0
# From MPC 92986
214P/LINEAR,e,15.1849,348.2581,190.2741,3.616442,0.1433117,0.48589469,253.6084,09/14.0/2020,2000,g 13.0,4.0
# From MPC118098
215P/NEAT,e,10.5815,56.6835,262.0954,4.327693,0.1094761,0.16698188,32.9110,09/14.0/2020,2000,g 11.0,4.0
# From MPC100284
216P/LINEAR,e,9.0526,359.8163,151.3578,3.869847,0.1294683,0.44569738,203.0667,09/14.0/2020,2000,g 13.0,4.0
# From MPC108598
217P/LINEAR,e,12.8645,125.4787,246.8434,3.951493,0.1254764,0.68838900,144.9275,09/14.0/2020,2000,g 12.0,4.0
# From MPEC 2020-K19
218P/LINEAR,e,2.7255,175.9757,59.7862,3.093743,0.1811247,0.62184824,356.4177,09/14.0/2020,2000,g 16.0,4.0
# From MPC100284
219P/LINEAR,e,11.5297,230.9907,107.3735,3.650652,0.1413021,0.35366039,183.7383,09/14.0/2020,2000,g 11.0,4.0
# From MPEC 2020-K19
220P/McNaught,e,8.1282,150.1043,180.5391,3.116490,0.1791453,0.50190557,344.2992,09/14.0/2020,2000,g 15.0,4.0
# From MPC 93589
221P/LINEAR,e,11.4260,229.7163,40.0596,3.457397,0.1533134,0.49281561,289.4803,09/14.0/2020,2000,g 14.5,4.0
# From MPC 92277
222P/LINEAR,e,5.0954,6.7914,346.2322,2.899401,0.1996373,0.71445960,93.2054,09/14.0/2020,2000,g 20.0,4.0
# From MPEC 2020-HN5
223P/Skiff,e,27.0186,346.7731,37.8199,4.159200,0.1161955,0.41574783,69.2155,09/14.0/2020,2000,g 12.0,4.0
# From MPC 75727
224P/LINEAR-NEAT,e,13.3154,40.3171,16.7754,3.438876,0.1545537,0.40812639,244.7170,09/14.0/2020,2000,g 15.5,4.0
# From MPC 75727
225P/LINEAR,e,21.3524,14.1854,3.8661,3.650827,0.1412919,0.63773929,210.4357,09/14.0/2020,2000,g 18.0,4.0
# From MPC106349
226P/Pigott-LINEAR-Kowalski,e,44.0111,54.0036,341.0475,3.767764,0.1347654,0.52825886,198.2772,09/14.0/2020,2000,g 12.5,4.0
# From MPC102956
227P/Catalina-LINEAR,e,6.5074,49.2790,90.2343,3.567631,0.1462629,0.50675540,172.2217,09/14.0/2020,2000,g 16.5,2.0
# From MPEC 2020-L06
228P/LINEAR,e,7.9103,30.9824,115.2662,4.172908,0.1156234,0.17665462,21.6869,09/14.0/2020,2000,g 14.5,2.0
# From MPC106349
229P/Gibbs,e,26.0876,157.9015,223.9725,3.931007,0.1264586,0.37665457,153.2901,09/14.0/2020,2000,g 13.0,4.0
# From MPC110497
230P/LINEAR,e,15.5108,107.0238,313.5701,3.450853,0.1537497,0.54781506,275.3518,09/14.0/2020,2000,g 13.0,4.0
# From MPEC 2020-K19
231P/LINEAR-NEAT,e,12.3349,133.0198,42.9538,4.019833,0.1222903,0.24768838,55.8710,09/14.0/2020,2000,g 14.5,2.0
# From MPC112394
232P/Hill,e,14.6317,56.0189,53.4657,4.481719,0.1038813,0.33423516,54.7318,09/14.0/2020,2000,g 11.5,4.0
# From MPC 92986
233P/La Sagra,e,11.2837,74.9272,27.0579,3.030842,0.1867924,0.41182434,356.6992,09/14.0/2020,2000,g 15.0,4.0
# From MPC110497
234P/LINEAR,e,11.5259,179.5657,357.3467,3.802410,0.1329277,0.25421316,160.0159,09/14.0/2020,2000,g 12.0,4.0
# From MPC110497
235P/LINEAR,e,8.8940,203.7842,333.4633,3.979181,0.1241691,0.32025512,113.2942,09/14.0/2020,2000,g 12.0,4.0
# From MPC107688
236P/LINEAR,e,16.3343,245.6469,119.2030,3.730988,0.1367629,0.50857013,140.6512,09/14.0/2020,2000,g 14.0,4.0
# From MPC109593
237P/LINEAR,e,14.0196,245.4109,25.1857,3.512456,0.1497227,0.43467830,214.4459,09/14.0/2020,2000,g 14.5,2.0
# From MPC107688
238P/Read,e,1.2644,51.6428,324.6714,3.163688,0.1751514,0.25232284,249.4959,09/14.0/2020,2000,g 14.5,4.0
# From MPC112394
239P/LINEAR,e,11.3009,255.9144,220.4458,4.471358,0.1042425,0.63049032,63.9034,09/14.0/2020,2000,g 17.5,2.0
# From MPC109593
240P/NEAT,e,23.5062,74.9205,351.9925,3.867886,0.1295668,0.44874576,110.4504,09/14.0/2020,2000,g 11.0,4.0
# From MPEC 2020-K19
241P/LINEAR,e,21.1067,305.4835,111.3472,4.923985,0.0902047,0.61037244,331.6201,09/14.0/2020,2000,g 13.5,4.0
# From MPC 81861
242P/Spahr,e,32.4826,180.4650,246.1912,5.478486,0.0768623,0.27796396,239.0757,09/14.0/2020,2000,g  8.0,4.0
# From MPC111774
243P/NEAT,e,7.6411,87.6531,283.5220,3.831487,0.1314175,0.35984672,98.5440,09/14.0/2020,2000,g 12.5,4.0
# From MPC 88331
244P/Scotti,e,2.2592,353.9901,92.8825,4.895367,0.0909968,0.19847397,287.8380,09/14.0/2020,2000,g  9.0,4.0
# From MPEC 2020-K19
245P/WISE,e,21.1973,316.6493,316.8326,4.042992,0.1212411,0.45754272,114.9595,09/14.0/2020,2000,g 14.0,4.0
# From MPEC 2020-K19
246P/NEAT,e,15.9874,78.7471,176.2805,4.015439,0.1224911,0.28675639,340.1883,09/14.0/2020,2000,g 10.5,4.0
# From MPC112394
247P/LINEAR,e,13.6549,54.0111,47.4870,3.970194,0.1245909,0.62442946,81.2523,09/14.0/2020,2000,g 16.5,2.0
# From MPC 75730
248P/Gibbs,e,6.3471,207.7531,209.9014,5.990972,0.0672138,0.63794959,237.0399,09/14.0/2020,2000,g 14.0,4.0
# From MPEC 2020-K19
249P/LINEAR,e,8.3968,239.1763,65.6064,2.761938,0.2147253,0.82013921,16.4271,09/14.0/2020,2000,g 15.5,4.0
# From MPC110497
250P/Larson,e,13.2221,73.6336,45.9856,3.755255,0.1354394,0.40341423,129.3971,09/14.0/2020,2000,g 14.5,4.0
# From MPC104795
251P/LINEAR,e,23.4027,219.3972,31.2682,3.510035,0.1498776,0.50542389,173.1826,09/14.0/2020,2000,g 16.5,2.0
# From MPC102956
252P/LINEAR,e,10.4100,190.9515,343.3105,3.049702,0.1850623,0.67199273,304.4913,09/14.0/2020,2000,g 17.5,4.0
# From MPC112394
253P/PANSTARRS,e,4.9427,146.8776,230.6396,3.467709,0.1526301,0.41350551,131.2799,09/14.0/2020,2000,g 14.5,4.0
# From MPEC 2020-K19
254P/McNaught,e,32.5722,129.1742,219.4798,4.614085,0.0994433,0.32013133,358.4433,09/14.0/2020,2000,g 11.0,4.0
# From NK 2214
255P/Levy,e,13.9612,276.6767,185.2572,2.934840,0.1960322,0.71903240,219.0647,09/14.0/2020,2000,g  9.0,4.0
# From MPC 84027
256P/LINEAR,e,27.6342,81.3512,124.2982,4.636475,0.0987239,0.41831690,270.2260,09/14.0/2020,2000,g 14.0,2.0
# From MPEC 2020-N31
257P/Catalina,e,20.2217,207.7389,117.6478,3.763544,0.1349922,0.43073335,0.4399,09/14.0/2020,2000,g 11.5,4.0
# From MPC 79655
258P/PANSTARRS,e,6.7460,126.2483,26.0959,4.401221,0.1067442,0.20896622,9.2350,09/14.0/2020,2000,g 13.0,4.0
# From MPC106349
259P/Garradd,e,15.8884,51.4585,257.5861,2.730787,0.2184099,0.33848615,248.0985,09/14.0/2020,2000,g 15.5,4.0
# From MPEC 2020-L06
260P/McNaught,e,15.0535,349.3445,18.4029,3.622438,0.1429561,0.60895533,52.8942,09/14.0/2020,2000,g 13.5,4.0
# From MPEC 2019-TG9
261P/Larson,e,6.0760,291.1620,67.1339,3.489727,0.1511878,0.42306896,68.5225,09/14.0/2020,2000,g 14.0,4.0
# From MPC 82322
262P/McNaught-Russell,e,29.1786,217.9015,171.0009,6.876160,0.0546620,0.81519665,155.5060,09/14.0/2020,2000,g 13.5,4.0
# From MPC 89018
263P/Gibbs,e,11.5490,105.8117,34.4267,3.054034,0.1846687,0.59018707,199.2706,09/14.0/2020,2000,g  9.0,4.0
# From MPC114608
264P/Larsen,e,25.1316,220.8279,346.7101,3.898296,0.1280536,0.37460982,51.9792,09/14.0/2020,2000,g 13.0,4.0
# From MPC 79870
265P/LINEAR,e,14.3633,342.9308,33.4157,4.253936,0.1123357,0.64763355,343.3713,09/14.0/2020,2000,g 14.5,4.0
# From MPEC 2019-TG9
266P/Christensen,e,3.4259,4.9993,97.8419,3.535273,0.1482756,0.33946836,21.8728,09/14.0/2020,2000,g 12.5,4.0
# From MPC114608
267P/LONEOS,e,6.1377,228.6550,114.1004,3.212111,0.1712057,0.61407711,134.2915,09/14.0/2020,2000,g 19.5,4.0
# From MPC 92277
268P/Bernardi,e,16.1445,127.5861,0.0445,4.549723,0.1015609,0.47171758,199.9076,09/14.0/2020,2000,g 14.0,4.0
# From MPC104795
269P/Jedicke,e,7.0705,241.7034,225.9531,7.080115,0.0523171,0.43043771,113.8104,09/14.0/2020,2000,g 10.0,4.0
# From MPC 88332
270P/Gehrels,e,2.9179,222.9655,209.8962,6.668579,0.0572340,0.46699435,152.0179,09/14.0/2020,2000,g  8.0,4.0
# From MPC 92277
271P/van Houten-Lemmon,e,6.8669,9.2993,36.4505,7.047454,0.0526812,0.39350290,138.1725,09/14.0/2020,2000,g 11.0,4.0
# From MPC 81862
272P/NEAT,e,18.0762,109.4649,27.9772,4.454803,0.1048241,0.45416712,289.6232,09/14.0/2020,2000,g 16.0,2.0
# From MPC 82723
273P/Pons-Gambart,e,136.7732,320.4006,20.3093,31.73980,0.0055119,0.97405348,0.0000,12/17.2776/2012,2000,g 11.5,4.0
# From MPC 88332
274P/Tombaugh-Tenagra,e,15.8177,81.3373,38.5062,4.371299,0.1078421,0.43878710,298.3488,09/14.0/2020,2000,g 13.0,4.0
# From MPC 81862
275P/Hermann,e,21.2800,348.7574,174.0969,5.771657,0.0710810,0.71248157,200.6386,09/14.0/2020,2000,g 17.0,4.0
# From MPEC 2020-K19
276P/Vorobjov,e,14.8172,211.4360,199.8932,5.313119,0.0804785,0.26726145,234.8231,09/14.0/2020,2000,g 11.5,4.0
# From MPC105243
277P/LINEAR,e,16.7790,276.3446,152.3221,3.851744,0.1303821,0.50554513,346.0216,09/14.0/2020,2000,g 14.0,4.0
# From MPEC 2020-K19
278P/McNaught,e,6.6851,15.4481,238.0861,3.693587,0.1388454,0.43495871,0.2688,09/14.0/2020,2000,g 14.0,4.0
# From MPC100285
279P/La Sagra,e,5.0518,346.2279,5.7623,3.575285,0.1457935,0.39816240,221.8234,09/14.0/2020,2000,g 14.0,4.0
# From MPC 89013
280P/Larsen,e,11.7750,131.3939,104.8045,4.528994,0.1022590,0.41793746,252.1875,09/14.0/2020,2000,g 12.5,4.0
# From MPC 83145
281P/MOSS,e,4.7197,87.1728,26.8435,4.869909,0.0917113,0.17160200,280.0048,09/14.0/2020,2000,g 11.0,4.0
# From MPC xxxxx
282P/,e,5.8104,9.2963,217.5532,4.244192,0.1127227,0.18919789,314.3330,09/14.0/2020,2000,g 13.5,2.0
# From MPEC 2013-M31
283P/Spacewatch,e,14.4539,161.1336,22.2677,4.139472,0.1170272,0.48500293,317.9814,09/14.0/2020,2000,g  9.0,4.0
# From MPEC 2020-K19
284P/McNaught,e,11.8587,144.2746,202.6241,3.676237,0.1398295,0.37594726,309.0667,09/14.0/2020,2000,g 13.0,4.0
# From MPC 85339
